{"type":"FeatureCollection","features":[{"type":"Feature","properties":{"cerro":"Cerro Punhuato","cve":"PUNH","area_ha":116.5},"geometry":{"type":"Polygon","coordinates":[[[-101.12291,19.701],[-101.120706,19.700384],[-101.120863,19.699784],[-101.120952,19.69955],[-101.121113,19.699275],[-101.122326,19.698082],[-101.123395,19.697306],[-101.12371,19.697166],[-101.124378,19.69702],[-101.125119,19.696976],[-101.126103,19.696978],[-101.127805,19.697369],[-101.12813,19.697406],[-101.128413,19.697381],[-101.128796,19.697165],[-101.129314,19.69633],[-101.130186,19.69541],[-101.130777,19.694956],[-101.131411,19.69456],[-101.132383,19.694087],[-101.133895,19.693823],[-101.133933,19.693687],[-101.13403,19.693582],[-101.136567,19.69279],[-101.137856,19.692297],[-101.138575,19.692377],[-101.138902,19.692449],[-101.139108,19.692579],[-101.13931,19.692967],[-101.139418,19.692914],[-101.139479,19.692952],[-101.139842,19.693921],[-101.140301,19.694723],[-101.140859,19.695902],[-101.14116,19.696235],[-101.14133,19.69648],[-101.141549,19.697172],[-101.14153,19.697275],[-101.141007,19.697502],[-101.140099,19.698029],[-101.14009,19.698852],[-101.140169,19.699606],[-101.139781,19.699641],[-101.139253,19.699889],[-101.139994,19.70088],[-101.139846,19.701007],[-101.139518,19.701098],[-101.139166,19.701128],[-101.138396,19.701388],[-101.138174,19.701126],[-101.137997,19.701132],[-101.137748,19.70103],[-101.137533,19.700884],[-101.137333,19.700816],[-101.136719,19.700992],[-101.136661,19.701041],[-101.136619,19.701181],[-101.136537,19.70125],[-101.135926,19.701246],[-101.135715,19.701328],[-101.135418,19.701382],[-101.135124,19.701143],[-101.134978,19.701078],[-101.133977,19.700826],[-101.133567,19.70062],[-101.133288,19.700539],[-101.13306,19.700592],[-101.130351,19.702278],[-101.130285,19.7022],[-101.130109,19.701773],[-101.129641,19.701096],[-101.129629,19.700827],[-101.130154,19.699947],[-101.130361,19.699274],[-101.130144,19.698664],[-101.128806,19.698057],[-101.126469,19.698555],[-101.126343,19.700049],[-101.125544,19.700062],[-101.125106,19.700127],[-101.124566,19.700262],[-101.12291,19.701]]]}},{"type":"Feature","properties":{"cerro":"Cerro del Quinceo","cve":"QUIN","area_ha":2643.7},"geometry":{"type":"MultiPolygon","coordinates":[[[[-101.263953,19.754477],[-101.264907,19.754465],[-101.264906,19.754417],[-101.265293,19.75436],[-101.265607,19.75437],[-101.265483,19.75471],[-101.265471,19.754818],[-101.265517,19.755034],[-101.265705,19.755221],[-101.266882,19.755612],[-101.266999,19.755786],[-101.267302,19.756012],[-101.267579,19.756347],[-101.267297,19.756648],[-101.266981,19.756544],[-101.26675,19.756358],[-101.266232,19.756134],[-101.26582,19.756288],[-101.266009,19.756502],[-101.266113,19.756799],[-101.266272,19.756932],[-101.266674,19.757021],[-101.26703,19.756936],[-101.267201,19.756947],[-101.26739,19.757134],[-101.267451,19.757404],[-101.267126,19.757692],[-101.26687,19.757777],[-101.266943,19.757884],[-101.266908,19.758466],[-101.267142,19.758815],[-101.267642,19.758822],[-101.267885,19.758792],[-101.268479,19.758893],[-101.268882,19.759117],[-101.26902,19.759278],[-101.269158,19.759378],[-101.269262,19.760222],[-101.269265,19.760892],[-101.269138,19.763024],[-101.269089,19.764628],[-101.269863,19.765274],[-101.270736,19.765425],[-101.2715,19.765848],[-101.272031,19.764989],[-101.272479,19.764361],[-101.2728,19.763816],[-101.272899,19.763734],[-101.273413,19.763714],[-101.274131,19.763935],[-101.274627,19.763698],[-101.27509,19.763084],[-101.275818,19.763034],[-101.276084,19.763612],[-101.276147,19.764031],[-101.276467,19.764446],[-101.276575,19.764972],[-101.276151,19.765302],[-101.275584,19.765661],[-101.275304,19.766474],[-101.274232,19.767192],[-101.273685,19.767519],[-101.273035,19.769319],[-101.272899,19.770796],[-101.27166,19.771109],[-101.270432,19.771152],[-101.270423,19.771531],[-101.270585,19.771907],[-101.270575,19.772192],[-101.270136,19.772481],[-101.270073,19.773064],[-101.270122,19.773496],[-101.270345,19.774116],[-101.270414,19.774913],[-101.270194,19.775525],[-101.269036,19.775526],[-101.26837,19.774939],[-101.268082,19.77478],[-101.267689,19.774244],[-101.267005,19.774784],[-101.267307,19.775622],[-101.267177,19.775989],[-101.266809,19.775903],[-101.26626,19.775379],[-101.265026,19.775424],[-101.264085,19.779235],[-101.263387,19.781688],[-101.262761,19.783067],[-101.261885,19.784069],[-101.259045,19.784352],[-101.259498,19.783091],[-101.258277,19.781868],[-101.25624,19.780936],[-101.255655,19.77906],[-101.253909,19.778917],[-101.252865,19.77917],[-101.252275,19.778723],[-101.252078,19.778362],[-101.251369,19.778231],[-101.250905,19.778699],[-101.250639,19.779066],[-101.250361,19.779119],[-101.250041,19.778394],[-101.249892,19.778532],[-101.249807,19.779004],[-101.249436,19.779289],[-101.249033,19.779786],[-101.249018,19.779935],[-101.249163,19.780052],[-101.249306,19.780261],[-101.249242,19.780415],[-101.249329,19.780657],[-101.249413,19.780797],[-101.249389,19.7809],[-101.2496,19.78104],[-101.24972,19.781166],[-101.249841,19.781413],[-101.250104,19.781525],[-101.250269,19.781482],[-101.250516,19.781685],[-101.250738,19.782566],[-101.250378,19.783041],[-101.24957,19.783212],[-101.248817,19.783065],[-101.248498,19.783952],[-101.246993,19.784277],[-101.246297,19.784393],[-101.244641,19.783229],[-101.243344,19.782209],[-101.241816,19.77961],[-101.241026,19.779864],[-101.240472,19.780234],[-101.239762,19.780557],[-101.239262,19.779512],[-101.239345,19.777853],[-101.239251,19.777328],[-101.239077,19.776671],[-101.23854,19.776548],[-101.23727,19.77489],[-101.237249,19.774604],[-101.23676,19.771891],[-101.236606,19.771759],[-101.235649,19.77159],[-101.234993,19.771539],[-101.234146,19.770724],[-101.233845,19.770255],[-101.232802,19.766874],[-101.232613,19.765191],[-101.232265,19.761529],[-101.231753,19.754161],[-101.231356,19.746965],[-101.233716,19.743599],[-101.236314,19.742262],[-101.240633,19.739276],[-101.243936,19.73722],[-101.247662,19.732995],[-101.248794,19.731626],[-101.264044,19.736967],[-101.266212,19.739813],[-101.268328,19.741388],[-101.269341,19.741511],[-101.269709,19.741317],[-101.269935,19.741097],[-101.270134,19.741027],[-101.270391,19.740997],[-101.27072,19.741047],[-101.271091,19.740662],[-101.27153,19.740896],[-101.271853,19.741177],[-101.270948,19.742038],[-101.271066,19.742287],[-101.27129,19.74246],[-101.27145,19.742675],[-101.271576,19.742957],[-101.271609,19.743281],[-101.271561,19.743417],[-101.2712,19.743679],[-101.270881,19.743839],[-101.270662,19.743997],[-101.270571,19.744181],[-101.27056,19.74435],[-101.270648,19.744518],[-101.270899,19.744576],[-101.271277,19.744564],[-101.271619,19.744506],[-101.271948,19.744515],[-101.272044,19.74473],[-101.271953,19.745367],[-101.272057,19.745677],[-101.272291,19.746066],[-101.272607,19.746171],[-101.272977,19.746044],[-101.273111,19.7459],[-101.273378,19.745099],[-101.273556,19.745063],[-101.273799,19.745107],[-101.274065,19.745198],[-101.27428,19.745229],[-101.274553,19.745368],[-101.274805,19.745534],[-101.275045,19.745788],[-101.275421,19.746067],[-101.275394,19.746724],[-101.275526,19.746966],[-101.275749,19.747084],[-101.276079,19.747134],[-101.276485,19.747095],[-101.276789,19.746868],[-101.276866,19.746746],[-101.277044,19.746182],[-101.277041,19.745965],[-101.277074,19.745803],[-101.277794,19.745198],[-101.277705,19.744956],[-101.277738,19.744759],[-101.278513,19.744499],[-101.278702,19.744713],[-101.278865,19.745144],[-101.278876,19.745394],[-101.278996,19.745792],[-101.27919,19.745884],[-101.27917,19.745979],[-101.279467,19.745793],[-101.279401,19.745665],[-101.279463,19.745488],[-101.279553,19.745291],[-101.279694,19.745113],[-101.279826,19.744861],[-101.279911,19.744799],[-101.280431,19.744752],[-101.280638,19.744682],[-101.280788,19.74468],[-101.280942,19.745009],[-101.280886,19.745105],[-101.280615,19.745122],[-101.280331,19.745254],[-101.280098,19.745406],[-101.279953,19.745753],[-101.279719,19.745918],[-101.2796,19.746068],[-101.279413,19.746463],[-101.279144,19.746649],[-101.278962,19.746956],[-101.278829,19.747093],[-101.278717,19.747297],[-101.278576,19.747441],[-101.278385,19.747518],[-101.278057,19.747576],[-101.277684,19.7475],[-101.277679,19.747648],[-101.278049,19.748036],[-101.278231,19.748284],[-101.27872,19.748658],[-101.27915,19.749077],[-101.279301,19.74915],[-101.27934,19.749366],[-101.279321,19.749535],[-101.279265,19.749651],[-101.279123,19.7497],[-101.278776,19.7499],[-101.278299,19.750076],[-101.278302,19.750238],[-101.278217,19.750334],[-101.277664,19.750605],[-101.276969,19.750492],[-101.276423,19.750228],[-101.275863,19.749829],[-101.275646,19.749859],[-101.275568,19.749941],[-101.275656,19.750089],[-101.275637,19.750228],[-101.275284,19.750817],[-101.275142,19.750877],[-101.274996,19.750875],[-101.274903,19.750667],[-101.274905,19.750487],[-101.274975,19.750182],[-101.274967,19.750088],[-101.274912,19.750004],[-101.274769,19.749989],[-101.27435,19.75015],[-101.274312,19.750241],[-101.274464,19.750662],[-101.274558,19.750742],[-101.274631,19.75088],[-101.274801,19.751006],[-101.274767,19.751101],[-101.274668,19.751157],[-101.273663,19.751099],[-101.273144,19.751014],[-101.272826,19.751028],[-101.272164,19.750434],[-101.2721,19.750229],[-101.271815,19.750527],[-101.271617,19.750438],[-101.271403,19.750217],[-101.271165,19.749777],[-101.270925,19.749993],[-101.270527,19.750141],[-101.269718,19.750016],[-101.269271,19.749697],[-101.269138,19.749428],[-101.269136,19.749299],[-101.269213,19.749176],[-101.269419,19.749072],[-101.269505,19.749119],[-101.269632,19.749509],[-101.269804,19.749555],[-101.269752,19.749393],[-101.270078,19.749172],[-101.270151,19.74882],[-101.270027,19.748611],[-101.269818,19.748513],[-101.268899,19.748666],[-101.268345,19.748883],[-101.267869,19.749119],[-101.267658,19.749325],[-101.26748,19.749408],[-101.267319,19.749613],[-101.267287,19.749843],[-101.267338,19.749944],[-101.26749,19.750078],[-101.267549,19.750226],[-101.267122,19.75084],[-101.266631,19.750995],[-101.266379,19.751316],[-101.265777,19.751689],[-101.265558,19.751901],[-101.265455,19.752167],[-101.264954,19.752653],[-101.264742,19.752791],[-101.264545,19.753024],[-101.264375,19.753127],[-101.264077,19.753232],[-101.263801,19.753479],[-101.263071,19.753847],[-101.262832,19.754128],[-101.262792,19.754345],[-101.26303,19.754504],[-101.263293,19.754426],[-101.263679,19.754435],[-101.263953,19.754477]]],[[[-101.250924,19.795193],[-101.251027,19.79515],[-101.251437,19.795342],[-101.251232,19.795769],[-101.251083,19.79572],[-101.250909,19.79594],[-101.250511,19.795889],[-101.250605,19.795674],[-101.250924,19.795193]]],[[[-101.255922,19.794873],[-101.255949,19.794997],[-101.25613,19.795268],[-101.256211,19.795462],[-101.256197,19.795531],[-101.256129,19.795529],[-101.256121,19.795494],[-101.255957,19.795496],[-101.256016,19.795736],[-101.256112,19.795922],[-101.255956,19.796117],[-101.255611,19.796206],[-101.255594,19.796063],[-101.25565,19.79578],[-101.255403,19.795444],[-101.255291,19.795364],[-101.255249,19.795269],[-101.255303,19.795158],[-101.255263,19.794829],[-101.255698,19.794837],[-101.255922,19.794873]]],[[[-101.293811,19.736537],[-101.29465,19.737311],[-101.295586,19.736826],[-101.29557,19.735703],[-101.294851,19.735347],[-101.294733,19.734063],[-101.295337,19.733406],[-101.296111,19.733545],[-101.296878,19.733224],[-101.297524,19.732445],[-101.299926,19.732549],[-101.298973,19.733833],[-101.297997,19.735537],[-101.29803,19.735874],[-101.298407,19.736235],[-101.299264,19.736237],[-101.300133,19.736077],[-101.301277,19.73613],[-101.301956,19.735648],[-101.3026,19.73472],[-101.303927,19.735596],[-101.30519,19.735011],[-101.30668,19.738306],[-101.306555,19.738497],[-101.307918,19.738926],[-101.308017,19.739831],[-101.307385,19.740584],[-101.307505,19.740974],[-101.307167,19.741371],[-101.307147,19.741953],[-101.307377,19.742004],[-101.308061,19.742902],[-101.30782,19.743013],[-101.307565,19.743192],[-101.307773,19.743717],[-101.308005,19.743944],[-101.30875,19.744151],[-101.308683,19.744436],[-101.309022,19.745176],[-101.309728,19.745532],[-101.310642,19.745534],[-101.31058,19.747198],[-101.31071,19.747264],[-101.311266,19.747176],[-101.311895,19.746221],[-101.313487,19.74662],[-101.312728,19.747536],[-101.313545,19.748689],[-101.314659,19.747619],[-101.316082,19.745247],[-101.316471,19.745485],[-101.31751,19.745228],[-101.31672,19.744887],[-101.316741,19.7444],[-101.315376,19.744891],[-101.314683,19.74536],[-101.314139,19.745299],[-101.313682,19.743343],[-101.31435,19.742077],[-101.314332,19.741833],[-101.313895,19.741244],[-101.314289,19.739818],[-101.314148,19.737967],[-101.315517,19.7378],[-101.31866,19.738733],[-101.31923,19.739619],[-101.318854,19.740354],[-101.319072,19.740568],[-101.319865,19.741099],[-101.31979,19.741844],[-101.319548,19.741888],[-101.319785,19.742493],[-101.319998,19.742382],[-101.320513,19.742403],[-101.321262,19.742896],[-101.320433,19.745863],[-101.319274,19.747711],[-101.313919,19.75167],[-101.309985,19.754388],[-101.309232,19.753818],[-101.308447,19.753855],[-101.306532,19.753852],[-101.304696,19.752334],[-101.303934,19.753007],[-101.305659,19.754757],[-101.305792,19.755053],[-101.305794,19.755201],[-101.305628,19.755569],[-101.305126,19.756427],[-101.304519,19.756949],[-101.304107,19.757063],[-101.303662,19.756947],[-101.30313,19.756751],[-101.302973,19.756753],[-101.302788,19.756809],[-101.302753,19.75731],[-101.302416,19.758776],[-101.302181,19.759306],[-101.30182,19.760001],[-101.301422,19.760155],[-101.300936,19.760148],[-101.299965,19.760228],[-101.29985,19.760175],[-101.29972,19.760041],[-101.299577,19.760043],[-101.299565,19.760206],[-101.299407,19.760154],[-101.299118,19.759954],[-101.298944,19.759754],[-101.298955,19.759551],[-101.298909,19.759321],[-101.29817,19.758573],[-101.29809,19.757979],[-101.297728,19.757645],[-101.297821,19.757211],[-101.298275,19.756948],[-101.298985,19.756669],[-101.298747,19.756022],[-101.298829,19.755751],[-101.298839,19.755413],[-101.298793,19.755224],[-101.298649,19.755104],[-101.29842,19.75508],[-101.298092,19.755152],[-101.298066,19.755368],[-101.298098,19.755571],[-101.298087,19.755774],[-101.297677,19.756144],[-101.296965,19.756275],[-101.296421,19.756242],[-101.296176,19.756083],[-101.296037,19.755865],[-101.296097,19.755569],[-101.296249,19.755202],[-101.296516,19.754861],[-101.296868,19.754504],[-101.29688,19.754315],[-101.297089,19.753974],[-101.297442,19.753672],[-101.297535,19.753157],[-101.297775,19.75295],[-101.298097,19.752527],[-101.298041,19.751567],[-101.298169,19.751579],[-101.29833,19.751807],[-101.298646,19.751938],[-101.298918,19.751962],[-101.299019,19.752042],[-101.299334,19.752051],[-101.299504,19.751981],[-101.299588,19.751845],[-101.299802,19.751829],[-101.300148,19.752027],[-101.300316,19.751836],[-101.300183,19.751486],[-101.300121,19.751148],[-101.300466,19.751279],[-101.301154,19.751473],[-101.301639,19.751426],[-101.303654,19.752415],[-101.303941,19.751491],[-101.304525,19.751389],[-101.304704,19.75094],[-101.304342,19.75058],[-101.304635,19.750075],[-101.304974,19.749787],[-101.305118,19.748879],[-101.305078,19.748135],[-101.305764,19.747125],[-101.306577,19.74702],[-101.307216,19.747756],[-101.307519,19.747968],[-101.307608,19.748143],[-101.307877,19.748004],[-101.307951,19.747192],[-101.307692,19.74706],[-101.30763,19.746722],[-101.307514,19.746589],[-101.307248,19.745983],[-101.3073,19.745617],[-101.307526,19.745479],[-101.307709,19.74522],[-101.307404,19.744885],[-101.306732,19.744961],[-101.306289,19.744846],[-101.30616,19.744874],[-101.306062,19.744957],[-101.306237,19.745266],[-101.30617,19.74551],[-101.305698,19.745489],[-101.305374,19.745845],[-101.30496,19.74585],[-101.304901,19.745729],[-101.30496,19.74489],[-101.304714,19.744663],[-101.304459,19.744775],[-101.304018,19.744902],[-101.303615,19.744704],[-101.303344,19.744762],[-101.302554,19.744474],[-101.302243,19.743734],[-101.301185,19.742639],[-101.299835,19.741154],[-101.299536,19.74128],[-101.297501,19.743849],[-101.29624,19.744225],[-101.29526,19.744987],[-101.293256,19.745717],[-101.290437,19.745414],[-101.289618,19.745073],[-101.289154,19.74466],[-101.288864,19.744312],[-101.287358,19.745941],[-101.286873,19.746028],[-101.286377,19.746278],[-101.286542,19.746804],[-101.286945,19.747055],[-101.287292,19.747322],[-101.287469,19.747725],[-101.287024,19.747582],[-101.286424,19.747576],[-101.286979,19.749409],[-101.287408,19.749417],[-101.286587,19.750983],[-101.289276,19.751165],[-101.289856,19.75178],[-101.28904,19.75267],[-101.288738,19.75354],[-101.2888,19.753904],[-101.289025,19.754645],[-101.289574,19.755017],[-101.289999,19.754768],[-101.290271,19.753791],[-101.29086,19.753026],[-101.291287,19.752953],[-101.292062,19.753146],[-101.292365,19.753345],[-101.292455,19.753628],[-101.292392,19.754251],[-101.291914,19.754798],[-101.29122,19.755253],[-101.291115,19.755877],[-101.292283,19.756633],[-101.292622,19.757319],[-101.292328,19.757755],[-101.291412,19.757686],[-101.288788,19.758017],[-101.288821,19.758328],[-101.28981,19.760588],[-101.28956,19.761078],[-101.291598,19.761715],[-101.292976,19.76209],[-101.292502,19.762921],[-101.290042,19.762777],[-101.288859,19.763982],[-101.288657,19.76389],[-101.288336,19.763421],[-101.288168,19.763639],[-101.288458,19.764948],[-101.287891,19.765253],[-101.284963,19.764343],[-101.284358,19.763052],[-101.284734,19.759341],[-101.284991,19.75835],[-101.283285,19.755909],[-101.285042,19.754872],[-101.284745,19.753117],[-101.285321,19.751365],[-101.284741,19.750777],[-101.284485,19.750861],[-101.283188,19.751121],[-101.282951,19.750543],[-101.282043,19.749973],[-101.281523,19.749573],[-101.283906,19.748325],[-101.284971,19.747919],[-101.28584,19.747705],[-101.285766,19.747517],[-101.285258,19.746955],[-101.283578,19.746368],[-101.282643,19.745974],[-101.281802,19.745078],[-101.281547,19.744229],[-101.280265,19.742527],[-101.279918,19.742194],[-101.2796,19.741968],[-101.279257,19.741959],[-101.279173,19.742054],[-101.278916,19.743059],[-101.278761,19.74325],[-101.27843,19.743106],[-101.278296,19.742715],[-101.278203,19.742202],[-101.278196,19.741688],[-101.278418,19.74129],[-101.278447,19.740925],[-101.278278,19.740492],[-101.278697,19.739942],[-101.278681,19.739314],[-101.279007,19.73864],[-101.277767,19.737635],[-101.277816,19.735064],[-101.27887,19.735835],[-101.280641,19.734757],[-101.280894,19.73447],[-101.28251,19.733557],[-101.28546,19.73406],[-101.286604,19.735168],[-101.286539,19.735602],[-101.285835,19.736287],[-101.28629,19.737175],[-101.287667,19.737536],[-101.288157,19.737854],[-101.289318,19.739084],[-101.290048,19.739196],[-101.289907,19.740308],[-101.291311,19.740601],[-101.292187,19.739886],[-101.293061,19.738103],[-101.293105,19.737142],[-101.292972,19.735831],[-101.293468,19.735581],[-101.293811,19.736537]]],[[[-101.313016,19.754056],[-101.317971,19.750792],[-101.321235,19.748248],[-101.32284,19.745849],[-101.323512,19.744056],[-101.324766,19.744355],[-101.325324,19.742898],[-101.325882,19.741023],[-101.326703,19.740449],[-101.327649,19.740682],[-101.328548,19.740573],[-101.329059,19.739953],[-101.329013,19.738775],[-101.329679,19.738357],[-101.331849,19.738946],[-101.333848,19.741255],[-101.33405,19.742542],[-101.333352,19.743781],[-101.332329,19.745719],[-101.331492,19.746912],[-101.32923,19.747974],[-101.326976,19.74961],[-101.324216,19.751727],[-101.319554,19.755024],[-101.315149,19.757707],[-101.313985,19.758383],[-101.31201,19.756856],[-101.311026,19.755461],[-101.313016,19.754056]]]]}},{"type":"Feature","properties":{"cerro":"Cerro del Águila","cve":"AGUI","area_ha":4211.1},"geometry":{"type":"Polygon","coordinates":[[[-101.345022,19.655032],[-101.341027,19.653007],[-101.339494,19.651798],[-101.339401,19.650305],[-101.34056,19.649057],[-101.342593,19.647956],[-101.343862,19.646034],[-101.341297,19.642671],[-101.337801,19.64287],[-101.336489,19.643727],[-101.33531,19.644637],[-101.333496,19.645735],[-101.333574,19.64717],[-101.335238,19.648882],[-101.335068,19.650321],[-101.333816,19.650752],[-101.331666,19.65041],[-101.329208,19.650496],[-101.327948,19.650395],[-101.325731,19.650008],[-101.324529,19.649247],[-101.323427,19.647527],[-101.321112,19.644333],[-101.318585,19.643589],[-101.316816,19.641887],[-101.314317,19.641133],[-101.313552,19.640303],[-101.31203,19.639149],[-101.31031,19.638195],[-101.3091,19.637615],[-101.307131,19.636565],[-101.304326,19.634334],[-101.305568,19.633235],[-101.307524,19.63339],[-101.309231,19.633432],[-101.311368,19.632862],[-101.312675,19.631599],[-101.313174,19.631168],[-101.314322,19.62793],[-101.316579,19.626049],[-101.31716,19.623991],[-101.318583,19.622862],[-101.321949,19.622358],[-101.321022,19.619507],[-101.320881,19.614957],[-101.320599,19.613913],[-101.320577,19.612396],[-101.320255,19.611858],[-101.320718,19.611014],[-101.323034,19.611633],[-101.323404,19.61152],[-101.324656,19.611711],[-101.325211,19.611226],[-101.324899,19.610065],[-101.324275,19.608456],[-101.324409,19.607786],[-101.325057,19.607805],[-101.325199,19.607089],[-101.326361,19.606461],[-101.326135,19.605538],[-101.326041,19.605282],[-101.326409,19.604598],[-101.327273,19.604859],[-101.327514,19.605046],[-101.328263,19.604783],[-101.329205,19.604632],[-101.329227,19.60356],[-101.32965,19.603112],[-101.330432,19.601829],[-101.331311,19.600679],[-101.332723,19.600119],[-101.334086,19.599478],[-101.334824,19.598466],[-101.33635,19.59786],[-101.339942,19.59915],[-101.341203,19.600687],[-101.343343,19.601706],[-101.345489,19.601859],[-101.346876,19.602889],[-101.348376,19.603104],[-101.350501,19.605108],[-101.354991,19.603885],[-101.35138,19.596725],[-101.350604,19.595127],[-101.349205,19.59455],[-101.348382,19.594317],[-101.347807,19.593493],[-101.347911,19.592119],[-101.348213,19.591212],[-101.347502,19.590183],[-101.348225,19.588141],[-101.349034,19.587408],[-101.350622,19.587812],[-101.351881,19.587913],[-101.354758,19.586557],[-101.357027,19.585994],[-101.359155,19.585542],[-101.360933,19.585943],[-101.36308,19.58615],[-101.364011,19.586607],[-101.366451,19.586647],[-101.367563,19.586416],[-101.368956,19.586542],[-101.370502,19.586043],[-101.370969,19.586091],[-101.371491,19.586581],[-101.372489,19.587065],[-101.372578,19.588572],[-101.373581,19.588766],[-101.37433,19.588513],[-101.376046,19.589203],[-101.376973,19.588062],[-101.378795,19.58756],[-101.380825,19.588404],[-101.382639,19.589927],[-101.384027,19.591514],[-101.385552,19.593387],[-101.385667,19.594082],[-101.385649,19.594519],[-101.385754,19.594811],[-101.385741,19.595124],[-101.385775,19.595413],[-101.385755,19.595538],[-101.385517,19.59598],[-101.385394,19.596055],[-101.385257,19.596073],[-101.385186,19.596127],[-101.385031,19.59642],[-101.384496,19.59726],[-101.384455,19.597501],[-101.384395,19.597595],[-101.384179,19.597809],[-101.384111,19.597839],[-101.383567,19.597847],[-101.383385,19.597979],[-101.383288,19.598127],[-101.383106,19.598274],[-101.38305,19.598407],[-101.38305,19.598578],[-101.383089,19.598736],[-101.383057,19.599082],[-101.382902,19.599467],[-101.382736,19.59966],[-101.382703,19.59978],[-101.382703,19.599871],[-101.382791,19.600166],[-101.382789,19.60038],[-101.382179,19.601626],[-101.3817,19.602477],[-101.381101,19.6025],[-101.380916,19.602547],[-101.380846,19.602613],[-101.38023,19.603605],[-101.37982,19.604094],[-101.37957,19.604466],[-101.379234,19.605407],[-101.368027,19.618813],[-101.367165,19.62113],[-101.398231,19.63088],[-101.398418,19.63147],[-101.397803,19.633095],[-101.397126,19.633672],[-101.397456,19.634743],[-101.397993,19.636885],[-101.395656,19.636735],[-101.394629,19.635611],[-101.393813,19.635866],[-101.393005,19.636653],[-101.393012,19.637132],[-101.391951,19.637625],[-101.391324,19.63841],[-101.391591,19.639056],[-101.392804,19.639817],[-101.393566,19.640412],[-101.393143,19.641492],[-101.392203,19.642399],[-101.391269,19.643007],[-101.390128,19.642607],[-101.390108,19.641234],[-101.389856,19.640931],[-101.389156,19.640642],[-101.388527,19.64065],[-101.387746,19.640715],[-101.386098,19.640141],[-101.385074,19.640489],[-101.38468,19.640954],[-101.385021,19.641401],[-101.385247,19.642527],[-101.382717,19.644213],[-101.381081,19.644434],[-101.380264,19.643316],[-101.377434,19.640165],[-101.376482,19.640873],[-101.376493,19.64165],[-101.376254,19.642249],[-101.375436,19.642377],[-101.374261,19.642158],[-101.374899,19.643459],[-101.375026,19.64427],[-101.374819,19.645149],[-101.37518,19.646354],[-101.37531,19.648014],[-101.375881,19.650571],[-101.374414,19.650013],[-101.372707,19.649918],[-101.371974,19.6513],[-101.371168,19.652259],[-101.370604,19.652809],[-101.369608,19.65312],[-101.367856,19.654579],[-101.366928,19.655666],[-101.365214,19.656411],[-101.363544,19.657598],[-101.36292,19.65794],[-101.362107,19.657734],[-101.361372,19.657698],[-101.360511,19.657475],[-101.359652,19.657414],[-101.358922,19.657062],[-101.358132,19.65645],[-101.356806,19.655772],[-101.355083,19.655912],[-101.34849,19.655519],[-101.345022,19.655032]]]}},{"type":"Feature","properties":{"cerro":"Pico Azul–La Escalera","cve":"PICO","area_ha":10854.1},"geometry":{"type":"Polygon","coordinates":[[[-101.132911,19.569307],[-101.132493,19.569133],[-101.131848,19.568997],[-101.13124,19.568789],[-101.131124,19.56854],[-101.130744,19.567226],[-101.130949,19.567138],[-101.131396,19.567084],[-101.131553,19.566429],[-101.13178,19.56634],[-101.131848,19.566067],[-101.131622,19.565461],[-101.130928,19.565542],[-101.130823,19.565774],[-101.130104,19.565985],[-101.129269,19.565804],[-101.129202,19.56555],[-101.12875,19.565222],[-101.128102,19.565298],[-101.12764,19.565098],[-101.127519,19.56512],[-101.127501,19.56475],[-101.125412,19.563617],[-101.125572,19.563274],[-101.126133,19.562814],[-101.126605,19.561997],[-101.127282,19.561801],[-101.127277,19.561741],[-101.128287,19.561471],[-101.129192,19.561141],[-101.128826,19.560668],[-101.128961,19.560101],[-101.1293,19.559493],[-101.129424,19.558943],[-101.129268,19.558671],[-101.129146,19.55837],[-101.12944,19.55796],[-101.12984,19.557609],[-101.130076,19.55715],[-101.130293,19.55661],[-101.130453,19.556018],[-101.130857,19.554914],[-101.130907,19.554561],[-101.130736,19.55449],[-101.130489,19.554135],[-101.13027,19.553358],[-101.129631,19.552083],[-101.129708,19.551946],[-101.128146,19.548074],[-101.121744,19.55131],[-101.121196,19.551141],[-101.120179,19.551042],[-101.119534,19.551061],[-101.11936,19.550848],[-101.119264,19.550613],[-101.119315,19.550424],[-101.11857,19.550279],[-101.117602,19.550486],[-101.116809,19.551036],[-101.112754,19.548569],[-101.108168,19.552836],[-101.107287,19.552028],[-101.106968,19.551461],[-101.107121,19.550732],[-101.107396,19.550381],[-101.107498,19.550075],[-101.107582,19.548687],[-101.107588,19.547769],[-101.107469,19.546945],[-101.107547,19.546216],[-101.107845,19.546029],[-101.10854,19.546103],[-101.109214,19.545707],[-101.109541,19.54505],[-101.109965,19.544581],[-101.110637,19.54442],[-101.111333,19.54433],[-101.111965,19.54271],[-101.11239,19.5421],[-101.113314,19.541399],[-101.114334,19.540746],[-101.115182,19.540445],[-101.115333,19.539952],[-101.115634,19.5396],[-101.116482,19.538875],[-101.117148,19.538454],[-101.117638,19.538505],[-101.11848,19.538305],[-101.118767,19.537476],[-101.119075,19.537007],[-101.119399,19.53675],[-101.119552,19.536421],[-101.119825,19.536328],[-101.119975,19.535977],[-101.120179,19.535154],[-101.120256,19.534637],[-101.120508,19.534167],[-101.121314,19.533824],[-101.121989,19.533841],[-101.122164,19.533397],[-101.121993,19.532615],[-101.122048,19.531917],[-101.122511,19.531202],[-101.122835,19.531238],[-101.122938,19.530838],[-101.122816,19.530484],[-101.122842,19.530226],[-101.122994,19.529921],[-101.12307,19.529686],[-101.124831,19.529507],[-101.125361,19.52936],[-101.12594,19.529569],[-101.127248,19.529368],[-101.127845,19.529488],[-101.128376,19.5292],[-101.129093,19.528634],[-101.129411,19.528747],[-101.130038,19.528749],[-101.130865,19.52866],[-101.130956,19.52852],[-101.130694,19.528134],[-101.13058,19.527674],[-101.130458,19.526879],[-101.130829,19.526421],[-101.130767,19.525421],[-101.130841,19.525234],[-101.131323,19.524779],[-101.131729,19.524068],[-101.131952,19.524389],[-101.132043,19.52471],[-101.132166,19.524927],[-101.132271,19.524563],[-101.132412,19.524419],[-101.132545,19.524693],[-101.133267,19.525621],[-101.133514,19.525635],[-101.133521,19.525343],[-101.133601,19.524731],[-101.133793,19.524012],[-101.133936,19.523706],[-101.134916,19.523807],[-101.135172,19.524065],[-101.135216,19.524481],[-101.136026,19.525922],[-101.136153,19.526114],[-101.136672,19.52661],[-101.13649,19.526893],[-101.136101,19.526851],[-101.136292,19.527806],[-101.136358,19.528395],[-101.136702,19.529056],[-101.137045,19.529928],[-101.13704,19.530729],[-101.136961,19.531176],[-101.137233,19.531601],[-101.137453,19.53205],[-101.137599,19.532568],[-101.137893,19.532946],[-101.138438,19.533373],[-101.138934,19.53347],[-101.139479,19.53352],[-101.139676,19.534015],[-101.139586,19.534323],[-101.139156,19.534909],[-101.139261,19.535096],[-101.139432,19.535199],[-101.139901,19.535057],[-101.140362,19.535194],[-101.140831,19.535857],[-101.141272,19.536731],[-101.142338,19.537137],[-101.143587,19.537273],[-101.145243,19.537144],[-101.146064,19.536796],[-101.146697,19.536203],[-101.147387,19.535423],[-101.148179,19.535007],[-101.149227,19.534198],[-101.151801,19.53234],[-101.152149,19.531989],[-101.152902,19.530792],[-101.153821,19.530492],[-101.15405,19.529834],[-101.154327,19.529176],[-101.154901,19.528662],[-101.155847,19.528314],[-101.156418,19.528341],[-101.156786,19.529166],[-101.157379,19.529381],[-101.158379,19.528973],[-101.159773,19.527535],[-101.160425,19.526691],[-101.16055,19.526339],[-101.160428,19.525891],[-101.160507,19.525444],[-101.160607,19.525115],[-101.161356,19.524437],[-101.161631,19.524038],[-101.161867,19.523935],[-101.162276,19.524088],[-101.162522,19.524537],[-101.162992,19.525034],[-101.163387,19.5252],[-101.163787,19.524732],[-101.163964,19.524356],[-101.164163,19.524146],[-101.164708,19.524102],[-101.165155,19.524221],[-101.165578,19.524012],[-101.166004,19.523591],[-101.167394,19.52258],[-101.168173,19.522167],[-101.168646,19.521698],[-101.168772,19.521464],[-101.168503,19.520874],[-101.168305,19.520332],[-101.168511,19.519603],[-101.169611,19.518196],[-101.170061,19.517728],[-101.170161,19.517399],[-101.170038,19.51714],[-101.169891,19.516951],[-101.169893,19.516668],[-101.170068,19.516434],[-101.170316,19.51627],[-101.170643,19.515496],[-101.170871,19.514862],[-101.171099,19.513968],[-101.171164,19.513474],[-101.177114,19.513886],[-101.177266,19.518655],[-101.175465,19.522611],[-101.176372,19.53097],[-101.174745,19.534757],[-101.173284,19.537704],[-101.174911,19.54053],[-101.178889,19.540901],[-101.181653,19.5392],[-101.190001,19.533401],[-101.193433,19.532606],[-101.194722,19.536524],[-101.199173,19.532703],[-101.204999,19.532632],[-101.20687,19.533865],[-101.199673,19.543495],[-101.199368,19.547098],[-101.199691,19.551363],[-101.192039,19.565733],[-101.182929,19.56915],[-101.175921,19.583081],[-101.171238,19.590696],[-101.171254,19.590774],[-101.180916,19.591592],[-101.181088,19.592172],[-101.181863,19.592773],[-101.180999,19.592666],[-101.177018,19.591871],[-101.175878,19.592585],[-101.175965,19.592974],[-101.176828,19.592989],[-101.177436,19.593423],[-101.17777,19.593795],[-101.178429,19.594983],[-101.177541,19.595085],[-101.177354,19.595437],[-101.176714,19.595679],[-101.176295,19.596112],[-101.177347,19.596994],[-101.177315,19.597656],[-101.178126,19.597906],[-101.178281,19.598209],[-101.17771,19.598501],[-101.17759,19.598723],[-101.178029,19.598822],[-101.178274,19.598689],[-101.179016,19.598901],[-101.178978,19.599148],[-101.178273,19.599649],[-101.176972,19.599652],[-101.176007,19.600144],[-101.174874,19.600417],[-101.173894,19.600805],[-101.172398,19.601562],[-101.171618,19.601572],[-101.171198,19.600837],[-101.170536,19.600482],[-101.169571,19.602051],[-101.170057,19.602551],[-101.17094,19.602073],[-101.171812,19.602792],[-101.172392,19.603122],[-101.173257,19.603306],[-101.17359,19.603678],[-101.174375,19.603967],[-101.17429,19.604825],[-101.173607,19.604885],[-101.173244,19.605395],[-101.172531,19.605445],[-101.171447,19.605264],[-101.17045,19.605418],[-101.170103,19.605085],[-101.169622,19.604948],[-101.169255,19.60516],[-101.16903,19.605721],[-101.168798,19.60575],[-101.168615,19.605415],[-101.168399,19.605625],[-101.168473,19.606052],[-101.168785,19.606801],[-101.169097,19.607254],[-101.169258,19.608017],[-101.169135,19.609018],[-101.1688,19.609606],[-101.1681,19.609419],[-101.168179,19.61021],[-101.16806,19.610549],[-101.167497,19.610464],[-101.167468,19.60931],[-101.167028,19.609147],[-101.166663,19.609463],[-101.166983,19.609874],[-101.16691,19.610536],[-101.166436,19.61097],[-101.165945,19.611106],[-101.165737,19.611508],[-101.166541,19.612225],[-101.166352,19.612409],[-101.166138,19.612801],[-101.165867,19.613024],[-101.165593,19.613054],[-101.165151,19.612748],[-101.164551,19.612923],[-101.163839,19.61288],[-101.163704,19.613037],[-101.162901,19.613397],[-101.162756,19.613827],[-101.162337,19.614209],[-101.162348,19.614925],[-101.161175,19.616314],[-101.16019,19.616339],[-101.15938,19.616193],[-101.158881,19.616744],[-101.157925,19.616924],[-101.156812,19.616652],[-101.155186,19.617111],[-101.154591,19.617637],[-101.15457,19.618104],[-101.154231,19.618355],[-101.152686,19.618529],[-101.152485,19.618856],[-101.152695,19.619217],[-101.152262,19.619572],[-101.15202,19.619899],[-101.151809,19.620563],[-101.151293,19.620842],[-101.151173,19.62109],[-101.150807,19.621354],[-101.150641,19.621278],[-101.150679,19.621018],[-101.150198,19.620855],[-101.14962,19.621666],[-101.149706,19.62199],[-101.149053,19.622283],[-101.148914,19.622155],[-101.148585,19.622133],[-101.148051,19.622152],[-101.147707,19.621988],[-101.147986,19.621336],[-101.148503,19.621109],[-101.148146,19.619972],[-101.147303,19.620449],[-101.147448,19.621018],[-101.146225,19.621707],[-101.144856,19.620698],[-101.145083,19.620268],[-101.144667,19.619896],[-101.144896,19.619621],[-101.145185,19.619721],[-101.145892,19.619329],[-101.14506,19.618586],[-101.145179,19.618209],[-101.145711,19.61807],[-101.147057,19.617405],[-101.147749,19.616891],[-101.14811,19.616251],[-101.148043,19.615328],[-101.14805,19.614848],[-101.14836,19.614468],[-101.148944,19.614111],[-101.149315,19.614116],[-101.149804,19.613919],[-101.150198,19.613707],[-101.150922,19.613568],[-101.150862,19.613154],[-101.150663,19.612598],[-101.150796,19.612298],[-101.150657,19.612145],[-101.150387,19.61246],[-101.150045,19.612477],[-101.149479,19.61216],[-101.149584,19.611756],[-101.149377,19.611694],[-101.149417,19.61155],[-101.149288,19.611111],[-101.148682,19.610846],[-101.148635,19.610444],[-101.149023,19.609739],[-101.149325,19.609774],[-101.14987,19.609437],[-101.150423,19.608743],[-101.150392,19.608509],[-101.150758,19.608233],[-101.151168,19.608176],[-101.15174,19.607974],[-101.151845,19.60761],[-101.152487,19.607498],[-101.154066,19.605764],[-101.153933,19.605052],[-101.155103,19.604532],[-101.154402,19.603801],[-101.153924,19.603885],[-101.153019,19.603792],[-101.152667,19.604043],[-101.151858,19.603987],[-101.150724,19.604118],[-101.150026,19.603153],[-101.148774,19.602688],[-101.148201,19.602811],[-101.147916,19.602971],[-101.147563,19.603247],[-101.147922,19.603412],[-101.148372,19.603276],[-101.148839,19.60344],[-101.149187,19.603877],[-101.149117,19.604773],[-101.148731,19.605569],[-101.148126,19.607054],[-101.1478,19.607173],[-101.147626,19.607421],[-101.147187,19.607349],[-101.146212,19.608191],[-101.146075,19.608167],[-101.146054,19.607609],[-101.145929,19.607468],[-101.145909,19.607001],[-101.145503,19.606344],[-101.144615,19.605428],[-101.145271,19.604331],[-101.14484,19.60383],[-101.143986,19.603477],[-101.14365,19.603948],[-101.142461,19.603054],[-101.141066,19.603174],[-101.140952,19.602773],[-101.140479,19.602753],[-101.139452,19.60174],[-101.139842,19.60118],[-101.139709,19.600416],[-101.13865,19.600079],[-101.13772,19.600103],[-101.13752,19.599469],[-101.137451,19.599444],[-101.135504,19.599273],[-101.134215,19.600079],[-101.133049,19.601507],[-101.131574,19.601732],[-101.130732,19.60121],[-101.12888,19.600882],[-101.128515,19.600147],[-101.128074,19.599931],[-101.127531,19.599237],[-101.127049,19.598996],[-101.125462,19.599119],[-101.125007,19.599917],[-101.12376,19.601917],[-101.122824,19.603575],[-101.122397,19.604476],[-101.122543,19.605124],[-101.121613,19.605213],[-101.121588,19.60642],[-101.122138,19.606608],[-101.123082,19.606558],[-101.123293,19.607009],[-101.127383,19.617102],[-101.126841,19.618587],[-101.12614,19.618375],[-101.126189,19.619036],[-101.125746,19.619643],[-101.123451,19.620085],[-101.121972,19.621102],[-101.121685,19.622208],[-101.121819,19.624033],[-101.121262,19.624351],[-101.121434,19.624933],[-101.12132,19.625648],[-101.122154,19.626598],[-101.123022,19.627045],[-101.122974,19.627525],[-101.123505,19.628323],[-101.124096,19.62855],[-101.123596,19.629036],[-101.122499,19.629112],[-101.122272,19.629569],[-101.122389,19.630113],[-101.122316,19.630853],[-101.121792,19.631612],[-101.120739,19.633805],[-101.120944,19.634776],[-101.121408,19.635692],[-101.121551,19.636144],[-101.121128,19.636305],[-101.121203,19.636771],[-101.121095,19.636928],[-101.120686,19.63701],[-101.120326,19.636755],[-101.12,19.636954],[-101.119898,19.637539],[-101.119065,19.63869],[-101.118199,19.640168],[-101.118158,19.641219],[-101.117808,19.641677],[-101.117456,19.641967],[-101.116959,19.642699],[-101.116166,19.642787],[-101.11517,19.642046],[-101.114932,19.64162],[-101.114221,19.641733],[-101.113214,19.642737],[-101.113111,19.643231],[-101.112164,19.644112],[-101.111658,19.644169],[-101.110333,19.645482],[-101.110369,19.646118],[-101.109194,19.645301],[-101.108678,19.644594],[-101.107737,19.643813],[-101.10622,19.644065],[-101.105222,19.645205],[-101.103903,19.646157],[-101.103474,19.645825],[-101.103054,19.646141],[-101.102343,19.646214],[-101.101649,19.646612],[-101.101422,19.647055],[-101.101609,19.647754],[-101.102224,19.648642],[-101.105449,19.648124],[-101.105875,19.648275],[-101.105947,19.648495],[-101.105631,19.652928],[-101.105205,19.652855],[-101.105364,19.653502],[-101.104949,19.654246],[-101.104253,19.654371],[-101.103617,19.654988],[-101.104345,19.655161],[-101.10475,19.655727],[-101.104508,19.656119],[-101.104775,19.656622],[-101.104261,19.657153],[-101.103159,19.657697],[-101.103443,19.658434],[-101.103882,19.658493],[-101.104737,19.657899],[-101.106458,19.658593],[-101.1054,19.659371],[-101.104195,19.659398],[-101.104273,19.660123],[-101.103373,19.662534],[-101.102101,19.66264],[-101.10218,19.663443],[-101.101386,19.663466],[-101.100113,19.662482],[-101.09879,19.66238],[-101.098514,19.662215],[-101.097431,19.66215],[-101.09748,19.661747],[-101.096806,19.661495],[-101.096035,19.660142],[-101.09535,19.660137],[-101.09345,19.661664],[-101.092134,19.663652],[-101.091437,19.663763],[-101.090527,19.663294],[-101.087313,19.662618],[-101.084139,19.662287],[-101.083976,19.661805],[-101.084043,19.661622],[-101.083834,19.661132],[-101.083501,19.661382],[-101.083038,19.659891],[-101.083217,19.659723],[-101.083178,19.659722],[-101.083064,19.659363],[-101.083071,19.659255],[-101.082987,19.658921],[-101.083354,19.659376],[-101.083328,19.659024],[-101.083658,19.658962],[-101.084046,19.658707],[-101.084011,19.658294],[-101.084087,19.65802],[-101.083332,19.657837],[-101.083024,19.657571],[-101.082852,19.657465],[-101.082931,19.657082],[-101.083133,19.656769],[-101.082943,19.656444],[-101.08258,19.656258],[-101.082405,19.656349],[-101.082429,19.655204],[-101.082118,19.654474],[-101.08214,19.654139],[-101.08198,19.653842],[-101.081855,19.653512],[-101.081896,19.652553],[-101.081766,19.652603],[-101.081366,19.652855],[-101.081248,19.652854],[-101.081205,19.652793],[-101.081351,19.65201],[-101.081238,19.652001],[-101.080984,19.652079],[-101.080429,19.652087],[-101.079935,19.651924],[-101.079682,19.651877],[-101.079357,19.651727],[-101.07972,19.651637],[-101.081124,19.651063],[-101.081197,19.650935],[-101.081284,19.65049],[-101.081455,19.650183],[-101.081955,19.649443],[-101.081824,19.649134],[-101.081969,19.648885],[-101.080355,19.646824],[-101.080082,19.646399],[-101.080285,19.645788],[-101.080115,19.645128],[-101.079697,19.644749],[-101.079549,19.6443],[-101.07943,19.643547],[-101.078818,19.642201],[-101.078228,19.641256],[-101.07791,19.640667],[-101.077473,19.63525],[-101.072963,19.629622],[-101.06816,19.623309],[-101.067597,19.622391],[-101.067448,19.621775],[-101.067527,19.62121],[-101.067508,19.620457],[-101.067535,19.620033],[-101.067735,19.619611],[-101.067493,19.618715],[-101.067298,19.618219],[-101.067428,19.617491],[-101.067831,19.616504],[-101.067089,19.61603],[-101.065742,19.615684],[-101.065036,19.614794],[-101.064418,19.614272],[-101.0631,19.614358],[-101.061906,19.614869],[-101.061135,19.615053],[-101.060411,19.615308],[-101.059253,19.616021],[-101.057628,19.615058],[-101.05746,19.614673],[-101.057179,19.614502],[-101.056763,19.614062],[-101.05645,19.613961],[-101.056289,19.613728],[-101.056246,19.613501],[-101.055736,19.612337],[-101.055638,19.612344],[-101.055061,19.611046],[-101.055112,19.610501],[-101.05563,19.609795],[-101.055454,19.609836],[-101.054685,19.610171],[-101.052215,19.607797],[-101.051724,19.607614],[-101.051291,19.606821],[-101.051329,19.60621],[-101.050238,19.606496],[-101.05005,19.606905],[-101.049425,19.607473],[-101.049062,19.60734],[-101.049451,19.606791],[-101.049382,19.606574],[-101.051086,19.605528],[-101.051487,19.605466],[-101.051194,19.604319],[-101.052941,19.602656],[-101.052077,19.601609],[-101.051435,19.601598],[-101.050654,19.599734],[-101.050428,19.599567],[-101.050719,19.598855],[-101.050646,19.598819],[-101.050538,19.59858],[-101.050058,19.597373],[-101.050525,19.596663],[-101.049552,19.596336],[-101.049214,19.596051],[-101.048413,19.595656],[-101.046337,19.59556],[-101.045351,19.595464],[-101.044501,19.594931],[-101.044492,19.594151],[-101.044687,19.593937],[-101.045042,19.592642],[-101.045467,19.592091],[-101.045465,19.591214],[-101.04633,19.590643],[-101.04713,19.590678],[-101.046955,19.591406],[-101.049489,19.592304],[-101.050209,19.592363],[-101.049662,19.588776],[-101.051788,19.587105],[-101.052132,19.58566],[-101.048678,19.586697],[-101.047689,19.585424],[-101.047765,19.58527],[-101.049443,19.585424],[-101.049694,19.584733],[-101.051135,19.582822],[-101.051028,19.578228],[-101.052136,19.577371],[-101.051584,19.575498],[-101.051019,19.575458],[-101.050916,19.57533],[-101.050027,19.57476],[-101.048862,19.574518],[-101.04814,19.574537],[-101.047394,19.574603],[-101.046746,19.574928],[-101.045966,19.575096],[-101.045159,19.574707],[-101.044666,19.574421],[-101.042727,19.574551],[-101.042584,19.573797],[-101.042762,19.57288],[-101.043114,19.572576],[-101.043776,19.572814],[-101.044526,19.572891],[-101.045597,19.57245],[-101.047095,19.571329],[-101.047595,19.570885],[-101.047991,19.570887],[-101.048563,19.570726],[-101.049061,19.570635],[-101.049727,19.571157],[-101.050788,19.572246],[-101.050961,19.572317],[-101.051136,19.572436],[-101.051033,19.572741],[-101.051132,19.573001],[-101.051403,19.573097],[-101.051703,19.572934],[-101.051954,19.572488],[-101.052206,19.57247],[-101.053088,19.573743],[-101.05311,19.574049],[-101.05316,19.574143],[-101.054102,19.574314],[-101.05529,19.575074],[-101.056774,19.575765],[-101.056869,19.575877],[-101.05739,19.575915],[-101.057225,19.576369],[-101.058425,19.576665],[-101.058654,19.577853],[-101.059954,19.578263],[-101.061192,19.578444],[-101.062633,19.578462],[-101.063019,19.57777],[-101.063788,19.577817],[-101.064042,19.577473],[-101.064443,19.576],[-101.065058,19.575509],[-101.064901,19.57475],[-101.065417,19.574245],[-101.065695,19.573192],[-101.06605,19.573773],[-101.066787,19.574385],[-101.067214,19.574345],[-101.068161,19.574044],[-101.069521,19.57457],[-101.070465,19.574764],[-101.071084,19.575097],[-101.07247,19.575764],[-101.072789,19.576284],[-101.073083,19.577062],[-101.072927,19.577721],[-101.073151,19.577934],[-101.074289,19.578482],[-101.07461,19.578883],[-101.076837,19.579909],[-101.077732,19.579796],[-101.078728,19.579544],[-101.079348,19.579664],[-101.080002,19.58022],[-101.080564,19.580369],[-101.081332,19.580857],[-101.082247,19.582035],[-101.083753,19.583777],[-101.084836,19.584641],[-101.085504,19.58419],[-101.087464,19.583922],[-101.088221,19.583892],[-101.088924,19.583686],[-101.089236,19.583892],[-101.089585,19.583847],[-101.090086,19.583566],[-101.091649,19.583544],[-101.092918,19.583599],[-101.093499,19.583807],[-101.094033,19.583527],[-101.095561,19.583741],[-101.097104,19.584175],[-101.098113,19.585063],[-101.098792,19.585413],[-101.099326,19.585806],[-101.099869,19.586139],[-101.101009,19.586498],[-101.102023,19.587092],[-101.103083,19.588299],[-101.103384,19.588065],[-101.10379,19.587621],[-101.104005,19.587645],[-101.104451,19.587859],[-101.104577,19.587601],[-101.10454,19.587331],[-101.105699,19.587276],[-101.106981,19.588125],[-101.107588,19.588055],[-101.10803,19.587691],[-101.108577,19.587412],[-101.109473,19.587158],[-101.110798,19.586059],[-101.111023,19.585543],[-101.112173,19.584419],[-101.113214,19.584496],[-101.114016,19.583724],[-101.115786,19.582369],[-101.117162,19.580917],[-101.119994,19.576625],[-101.12132,19.575244],[-101.122314,19.574968],[-101.123088,19.574218],[-101.123588,19.573821],[-101.124184,19.573589],[-101.125335,19.572254],[-101.125907,19.572281],[-101.127458,19.570454],[-101.127393,19.56897],[-101.12757,19.568548],[-101.128148,19.568379],[-101.128628,19.568485],[-101.129516,19.568468],[-101.129807,19.568607],[-101.130196,19.568484],[-101.130385,19.56853],[-101.130545,19.56846],[-101.130616,19.568128],[-101.130673,19.567351],[-101.130744,19.567226],[-101.131124,19.56854],[-101.13124,19.568789],[-101.131848,19.568997],[-101.132493,19.569133],[-101.132911,19.569307]],[[-101.076091,19.583161],[-101.076101,19.583158],[-101.075789,19.58342],[-101.076091,19.583161]],[[-101.075789,19.58342],[-101.075821,19.583638],[-101.075994,19.583743],[-101.07602,19.583958],[-101.075994,19.583743],[-101.075821,19.583638],[-101.075789,19.58342]],[[-101.075919,19.583965],[-101.075931,19.584377],[-101.075932,19.58441],[-101.075931,19.584377],[-101.075919,19.583965]],[[-101.075979,19.584434],[-101.076108,19.584495],[-101.076256,19.584447],[-101.076108,19.584495],[-101.075979,19.584434]],[[-101.076174,19.581301],[-101.076345,19.581474],[-101.076379,19.5815],[-101.076345,19.581474],[-101.076174,19.581301]],[[-101.076215,19.581236],[-101.076183,19.581286],[-101.076215,19.581236],[-101.076215,19.581236]],[[-101.07649,19.582989],[-101.07631,19.583085],[-101.076213,19.583119],[-101.07631,19.583085],[-101.07649,19.582989]],[[-101.076462,19.582533],[-101.076266,19.582194],[-101.076265,19.582059],[-101.076441,19.581775],[-101.076265,19.582059],[-101.076266,19.582194],[-101.076462,19.582533],[-101.076709,19.582871],[-101.076462,19.582533]],[[-101.076479,19.584362],[-101.076576,19.584318],[-101.076724,19.584252],[-101.076576,19.584318],[-101.076479,19.584362]],[[-101.078436,19.585246],[-101.078397,19.58473],[-101.078259,19.584584],[-101.077916,19.584428],[-101.078105,19.584002],[-101.077916,19.584428],[-101.078259,19.584584],[-101.078397,19.58473],[-101.078436,19.585246],[-101.078772,19.585255],[-101.078436,19.585246]],[[-101.078105,19.584002],[-101.077908,19.583976],[-101.077605,19.584204],[-101.076903,19.584113],[-101.076888,19.584147],[-101.076903,19.584113],[-101.077605,19.584204],[-101.077908,19.583976],[-101.078105,19.584002]],[[-101.07896,19.581191],[-101.078896,19.581177],[-101.078803,19.581189],[-101.078896,19.581177],[-101.07896,19.581191]],[[-101.078863,19.58516],[-101.079078,19.585145],[-101.078863,19.58516],[-101.078863,19.58516]],[[-101.079396,19.585607],[-101.079334,19.585718],[-101.079868,19.585902],[-101.079334,19.585718],[-101.079396,19.585607]],[[-101.079616,19.585217],[-101.079616,19.585217],[-101.079458,19.585172],[-101.079616,19.585217]],[[-101.079967,19.585737],[-101.080087,19.58554],[-101.080114,19.585272],[-101.080087,19.58554],[-101.079967,19.585737]],[[-101.080159,19.585239],[-101.080486,19.585339],[-101.080783,19.585206],[-101.080486,19.585339],[-101.080159,19.585239]],[[-101.082111,19.585071],[-101.081877,19.585068],[-101.081337,19.585216],[-101.081877,19.585068],[-101.082111,19.585071],[-101.082144,19.585366],[-101.082416,19.585356],[-101.082144,19.585366],[-101.082111,19.585071]],[[-101.081318,19.585222],[-101.080932,19.585017],[-101.081318,19.585222],[-101.081318,19.585222]],[[-101.081679,19.582507],[-101.081702,19.582484],[-101.081679,19.582507],[-101.081679,19.582507]],[[-101.081862,19.582858],[-101.081816,19.582828],[-101.081771,19.582632],[-101.081816,19.582828],[-101.081862,19.582858]],[[-101.082045,19.582979],[-101.082045,19.582979],[-101.082011,19.583121],[-101.082045,19.582979]],[[-101.08233,19.583676],[-101.082055,19.584011],[-101.082055,19.584011],[-101.08233,19.583676]],[[-101.08233,19.583676],[-101.082197,19.583449],[-101.08218,19.583418],[-101.082197,19.583449],[-101.08233,19.583676]],[[-101.082421,19.584834],[-101.082444,19.584791],[-101.082496,19.584498],[-101.082444,19.584791],[-101.082421,19.584834]],[[-101.131181,19.554582],[-101.132453,19.55458],[-101.132982,19.554538],[-101.133395,19.554353],[-101.133847,19.554241],[-101.133395,19.554353],[-101.132982,19.554538],[-101.132453,19.55458],[-101.131181,19.554582]],[[-101.13262,19.570171],[-101.132749,19.569876],[-101.13262,19.570171],[-101.132701,19.570435],[-101.13262,19.570171]],[[-101.132867,19.571001],[-101.133017,19.571564],[-101.133017,19.571564],[-101.132867,19.571001]],[[-101.133995,19.57693],[-101.134484,19.576745],[-101.134693,19.57652],[-101.134484,19.576745],[-101.133995,19.57693],[-101.133888,19.577433],[-101.133995,19.57693]],[[-101.134993,19.57233],[-101.134574,19.572084],[-101.133926,19.571697],[-101.134574,19.572084],[-101.134993,19.57233],[-101.135378,19.572791],[-101.134993,19.57233]],[[-101.134833,19.574482],[-101.135433,19.574117],[-101.134833,19.574482],[-101.13423,19.574705],[-101.134833,19.574482]],[[-101.134867,19.554157],[-101.135159,19.553917],[-101.134867,19.554157],[-101.134572,19.554096],[-101.134867,19.554157]],[[-101.13624,19.575111],[-101.136085,19.57479],[-101.135515,19.574582],[-101.136085,19.57479],[-101.13624,19.575111]],[[-101.135515,19.574582],[-101.135254,19.574872],[-101.135014,19.574989],[-101.135254,19.574872],[-101.135515,19.574582]],[[-101.136876,19.577433],[-101.136201,19.577872],[-101.135862,19.578082],[-101.136201,19.577872],[-101.136876,19.577433],[-101.13711,19.57714],[-101.136876,19.577433]],[[-101.140117,19.577682],[-101.13955,19.576577],[-101.139319,19.576293],[-101.13909,19.576117],[-101.138833,19.576729],[-101.138309,19.577094],[-101.138833,19.576729],[-101.13909,19.576117],[-101.139319,19.576293],[-101.13955,19.576577],[-101.140117,19.577682]],[[-101.138309,19.577094],[-101.137967,19.57699],[-101.137585,19.576744],[-101.137967,19.57699],[-101.138309,19.577094]],[[-101.138246,19.552289],[-101.138335,19.552365],[-101.138246,19.552289],[-101.138129,19.551995],[-101.138246,19.552289]],[[-101.13908,19.55529],[-101.139142,19.555369],[-101.13908,19.55529],[-101.139076,19.555235],[-101.13908,19.55529]],[[-101.141031,19.579893],[-101.140875,19.579573],[-101.140829,19.578964],[-101.140403,19.57818],[-101.140228,19.577886],[-101.140829,19.578964],[-101.140875,19.579573],[-101.141031,19.579893],[-101.14145,19.580103],[-101.141031,19.579893]],[[-101.140563,19.55664],[-101.140613,19.556623],[-101.140556,19.556628],[-101.140563,19.55664]],[[-101.141604,19.571749],[-101.141706,19.57179],[-101.141604,19.571749],[-101.141102,19.571003],[-101.141604,19.571749]],[[-101.141787,19.579884],[-101.141654,19.57997],[-101.141875,19.579841],[-101.141787,19.579884]],[[-101.141954,19.56963],[-101.141773,19.570242],[-101.141954,19.56963],[-101.142048,19.569446],[-101.141954,19.56963]],[[-101.142397,19.571668],[-101.142965,19.571697],[-101.143155,19.571803],[-101.142965,19.571697],[-101.142397,19.571668],[-101.142223,19.571729],[-101.142397,19.571668]],[[-101.142839,19.5565],[-101.142851,19.556264],[-101.142839,19.5565],[-101.142626,19.55655],[-101.142839,19.5565]],[[-101.142725,19.5679],[-101.142725,19.5679],[-101.142908,19.568136],[-101.142725,19.5679]],[[-101.143376,19.568502],[-101.14311,19.568398],[-101.143376,19.568502],[-101.14383,19.568497],[-101.143376,19.568502]],[[-101.14392,19.569607],[-101.143539,19.569361],[-101.14392,19.569607],[-101.144714,19.569562],[-101.14392,19.569607]],[[-101.144299,19.581073],[-101.14418,19.580645],[-101.143681,19.580077],[-101.14418,19.580645],[-101.144299,19.581073],[-101.14443,19.581372],[-101.144299,19.581073]],[[-101.144002,19.556231],[-101.143763,19.556463],[-101.144002,19.556231],[-101.144354,19.55555],[-101.144002,19.556231]],[[-101.144015,19.568172],[-101.144841,19.567732],[-101.144841,19.567732],[-101.144015,19.568172]],[[-101.145317,19.566579],[-101.144677,19.566766],[-101.144677,19.566766],[-101.145317,19.566579]],[[-101.145815,19.569907],[-101.145392,19.569374],[-101.145815,19.569907],[-101.145972,19.570299],[-101.145815,19.569907]],[[-101.145392,19.569374],[-101.145014,19.569379],[-101.144834,19.569488],[-101.145014,19.569379],[-101.145392,19.569374]],[[-101.144923,19.568233],[-101.144923,19.568233],[-101.14485,19.56829],[-101.144923,19.568233]],[[-101.145852,19.584102],[-101.145583,19.583818],[-101.145576,19.583245],[-101.145583,19.583818],[-101.145852,19.584102],[-101.145856,19.584411],[-101.145852,19.584102]],[[-101.145812,19.566824],[-101.145613,19.566725],[-101.145812,19.566824],[-101.146273,19.567356],[-101.145812,19.566824]],[[-101.149647,19.58506],[-101.149234,19.58528],[-101.148553,19.585288],[-101.14772,19.585262],[-101.147078,19.58527],[-101.146245,19.585244],[-101.146167,19.585054],[-101.146245,19.585244],[-101.147078,19.58527],[-101.148553,19.585288],[-101.149234,19.58528],[-101.149647,19.58506],[-101.149729,19.584844],[-101.149647,19.58506]],[[-101.147566,19.570782],[-101.147037,19.570824],[-101.146891,19.571185],[-101.147037,19.570824],[-101.147566,19.570782]],[[-101.147925,19.566476],[-101.147484,19.56745],[-101.147226,19.567955],[-101.147484,19.56745],[-101.147925,19.566476],[-101.14868,19.56636],[-101.147925,19.566476]],[[-101.147519,19.560073],[-101.147621,19.560227],[-101.147519,19.560073],[-101.147268,19.559816],[-101.147519,19.560073]],[[-101.147312,19.568742],[-101.147362,19.568797],[-101.147312,19.568742],[-101.147269,19.568348],[-101.147312,19.568742]],[[-101.147511,19.572324],[-101.147732,19.571856],[-101.147511,19.572324],[-101.147511,19.572324]],[[-101.148007,19.554092],[-101.147875,19.553616],[-101.148007,19.554092],[-101.148371,19.554302],[-101.148007,19.554092]],[[-101.149673,19.5728],[-101.149335,19.572948],[-101.150086,19.57258],[-101.149673,19.5728]],[[-101.149641,19.573195],[-101.149641,19.573195],[-101.149602,19.573164],[-101.149641,19.573195]],[[-101.151898,19.583743],[-101.151247,19.583105],[-101.15057,19.583364],[-101.150427,19.584011],[-101.15057,19.583364],[-101.151247,19.583105],[-101.151898,19.583743],[-101.152356,19.584024],[-101.151898,19.583743]],[[-101.151503,19.57389],[-101.151503,19.57389],[-101.151276,19.573928],[-101.151503,19.57389]],[[-101.15161,19.562295],[-101.15195,19.562019],[-101.15195,19.562019],[-101.15161,19.562295]],[[-101.152598,19.573769],[-101.152707,19.573609],[-101.152598,19.573769],[-101.152548,19.573765],[-101.152598,19.573769]],[[-101.153081,19.561719],[-101.152795,19.561193],[-101.153081,19.561719],[-101.153267,19.561758],[-101.153081,19.561719]],[[-101.153763,19.584617],[-101.153042,19.584446],[-101.153763,19.584617],[-101.154066,19.584649],[-101.153763,19.584617]],[[-101.153834,19.573424],[-101.153574,19.573256],[-101.153574,19.573256],[-101.153834,19.573424]],[[-101.155275,19.561765],[-101.154893,19.561482],[-101.155275,19.561765],[-101.155617,19.561904],[-101.155275,19.561765]],[[-101.154893,19.561482],[-101.154437,19.561344],[-101.154273,19.561527],[-101.154437,19.561344],[-101.154893,19.561482]],[[-101.155112,19.583633],[-101.154512,19.58407],[-101.155112,19.583633],[-101.155377,19.583223],[-101.155112,19.583633]],[[-101.156606,19.582217],[-101.155961,19.582081],[-101.155961,19.582081],[-101.156606,19.582217],[-101.156822,19.581916],[-101.156606,19.582217]]]}}],"metadata":{"observatorio":"Forestal (Peri)urbano de Morelia","autor":"Héctor Eduardo Zavala Solís","org":"CIGA-UNAM","licencia":"CC BY-NC-ND 4.0","fingerprint":"HZS-OFM-2026-e4372558ba98"}}